PROBA-1                 
1 26958U 01049B   26193.29245162  .00002155  00000+0  14124-3 0  9993
2 26958  97.9608 202.7024 0055923  39.2967 321.2298 15.07609869347404
CUTE-1 (CO-55)          
1 27844U 03031E   26193.25608136  .00000158  00000+0  87285-4 0  9991
2 27844  98.6742 201.5000 0010768 110.2037 250.0301 14.24350376195244
CUBESAT XI-IV (CO-57)   
1 27848U 03031J   26192.55431067  .00000130  00000+0  76240-4 0  9993
2 27848  98.6772 200.4999 0010408 128.9651 231.2457 14.23633286194846
APRIZESAT 4             
1 35684U 09041D   26193.00425065  .00000360  00000+0  49734-4 0  9992
2 35684  98.1404 268.8187 0042069 240.1403 119.5627 14.83911189915044
APRIZESAT 3             
1 35686U 09041F   26193.24329515  .00001052  00000+0  95583-4 0  9995
2 35686  98.2092 347.6723 0060977 345.6704  14.2784 14.96304910920127
PROBA-2                 
1 36037U 09059B   26192.44940836  .00000104  00000+0  34681-4 0  9990
2 36037  98.2457  15.4667 0012742 200.5903 159.4782 14.54872679885055
APRIZESAT 5             
1 37792U 11044E   26192.80096187  .00000453  00000+0  64640-4 0  9992
2 37792  98.2450 126.5399 0050739 283.9299  75.6273 14.81124114802433
APRIZESAT 6             
1 37793U 11044F   26192.73832200  .00000397  00000+0  63524-4 0  9996
2 37793  98.2343 103.7374 0043339   9.2855  45.5114 14.76953608800777
PROBA-V                 
1 39159U 13021A   26192.85933208  .00000043  00000+0  36884-4 0  9991
2 39159  98.3603 170.2499 0005344  67.7410 292.4336 14.23603107684623
APRIZESAT 7             
1 39416U 13066A   26193.31054922  .00000495  00000+0  54328-4 0  9999
2 39416  97.7721 146.1716 0037048 126.5461 233.9178 14.91615565684971
APRIZESAT 8             
1 39425U 13066K   26193.29687563  .00000406  00000+0  49915-4 0  9997
2 39425  97.8228 140.4164 0045254 201.5084 158.4232 14.87693684683403
BUGSAT-1 (TITA)         
1 40014U 14033E   26193.25454067  .00003914  00000+0  20641-3 0  9996
2 40014  98.0437 287.2734 0029113  95.4671 264.9882 15.15864097659637
SAUDISAT 4              
1 40016U 14033G   26192.87096491  .00000274  00000+0  42891-4 0  9996
2 40016  97.7612 338.1563 0044532 354.9490   5.1267 14.79573545649725
APRIZESAT 9             
1 40018U 14033J   26192.84568323  .00000378  00000+0  62796-4 0  9994
2 40018  97.9089 325.4456 0067338 120.4864 240.3018 14.74249965647194
APRIZESAT 10            
1 40019U 14033K   26192.82052080  .00000330  00000+0  59735-4 0  9998
2 40019  97.9677 319.2345 0078454 194.1474 165.7536 14.70908468645876
TECHDEMOSAT-1 (TDS-1)   
1 40076U 14037H   26192.88518611  .00004272  00000+0  24189-3 0  9991
2 40076  98.3822 187.5538 0006572 169.0701 191.0671 15.13649220651967
TECHNOSAT               
1 42829U 17042E   26193.31433347  .00002176  00000+0  15666-3 0  9990
2 42829  97.4310 350.0210 0017694  12.7462 347.4209 15.05099876490485
FLYING LAPTOP           
1 42831U 17042G   26193.31410569  .00001958  00000+0  15612-3 0  9992
2 42831  97.4789 347.8994 0019820  41.6471 318.6259 15.01300469490221
HAWK-A                  
1 43765U 18099H   26192.95751059  .00004339  00000+0  17431-3 0  9990
2 43765  97.3904 244.8727 0034381 195.3513 164.6685 15.24938254416874
HAWK-B                  
1 43794U 18099AN  26193.07445703  .00003716  00000+0  15858-3 0  9991
2 43794  97.3952 244.3505 0031085 213.2280 146.7006 15.23092911416820
HAWK-C                  
1 43799U 18099AT  26193.00850949  .00004979  00000+0  17834-3 0  9999
2 43799  97.3883 245.9582 0039979 195.1149 164.8899 15.28458113417706
SALSAT                  
1 46495U 20068K   26192.54062004  .00004447  00000+0  15528-3 0  9997
2 46495  97.8855 197.0941 0008823 206.5203 153.5586 15.30139435319080
HAWK-2C                 
1 47502U 21006CT  26193.18787188  .00003972  00000+0  11930-3 0  9993
2 47502  97.2270 237.0013 0008604 109.3431 250.8744 15.34964737303333
HAWK-2A                 
1 47505U 21006CW  26193.19012539  .00004000  00000+0  12009-3 0  9999
2 47505  97.2312 237.6960 0008116 112.5807 247.6296 15.34979714303338
HAWK-2B                 
1 47508U 21006CZ  26192.72761057  .00004605  00000+0  13734-3 0  9993
2 47508  97.2184 235.5351 0008667 112.2337 247.9827 15.35104016303266
HAWK-3B                 
1 48931U 21059BE  26193.04429826  .00031460  00000+0  24510-3 0  9996
2 48931  97.6641  32.1420 0004226 209.9705 150.1316 15.71662815281750
HAWK-3C                 
1 48948U 21059BX  26192.53462930  .00032017  00000+0  24970-3 0  9999
2 48948  97.6752  37.3098 0004248 211.5765 148.5243 15.71633627281678
HAWK-3A                 
1 48957U 21059CG  26192.53451707  .00032665  00000+0  25471-3 0  9995
2 48957  97.6700  34.4950 0004352 212.7236 147.3758 15.71633774281679
HAWK-5C                 
1 52754U 22057Y   26193.32112053  .00011257  00000+0  18708-3 0  9999
2 52754  97.6605 354.6292 0003105 358.1085   2.0155 15.52257580230242
HAWK-5B                 
1 52756U 22057AA  26193.32093186  .00010992  00000+0  18272-3 0  9997
2 52756  97.6620 352.9817 0003748 344.2479  15.8656 15.52255288230242
